{
  "norad_id": 63244,
  "name": "PANDORE",
  "history": [
    {
      "epoch": "2026-04-14T15:05:34.222848Z",
      "apogee_km": 587.5504030033972,
      "perigee_km": 579.1353661189396,
      "latitude_deg": -1.8660047749569544e-05,
      "longitude_deg": -71.98444630194234,
      "height_km": 584.1037820327513,
      "semi_major_axis_km": 6961.479884561168,
      "eccentricity": 0.0006044,
      "inclination_deg": 97.6972,
      "raan_deg": 357.2107,
      "arg_perigee_deg": 57.2399,
      "mean_anomaly_deg": 302.9403,
      "mean_motion_rev_day": 14.94687502
    },
    {
      "epoch": "2026-04-15T16:47:59.087616Z",
      "apogee_km": 587.5378258076253,
      "perigee_km": 579.1269784759561,
      "latitude_deg": 6.320103659626999e-07,
      "longitude_deg": -97.59319528513919,
      "height_km": 583.9600944768565,
      "semi_major_axis_km": 6961.46940214179,
      "eccentricity": 0.0006041,
      "inclination_deg": 97.6972,
      "raan_deg": 358.2613,
      "arg_perigee_deg": 55.0313,
      "mean_anomaly_deg": 305.1474,
      "mean_motion_rev_day": 14.94690878
    },
    {
      "epoch": "2026-04-16T12:04:47.620416Z",
      "apogee_km": 587.5306446953473,
      "perigee_km": 579.1072829791046,
      "latitude_deg": -8.889461411181655e-05,
      "longitude_deg": -26.799409242017916,
      "height_km": 583.802764179234,
      "semi_major_axis_km": 6961.455963837226,
      "eccentricity": 0.000605,
      "inclination_deg": 97.6969,
      "raan_deg": 359.0491,
      "arg_perigee_deg": 52.6621,
      "mean_anomaly_deg": 307.5149,
      "mean_motion_rev_day": 14.94695206
    },
    {
      "epoch": "2026-04-17T10:34:24.040992Z",
      "apogee_km": 587.4957083115096,
      "perigee_km": 579.117193431779,
      "latitude_deg": -3.644294392732766e-06,
      "longitude_deg": -4.20574482507752,
      "height_km": 583.675016536648,
      "semi_major_axis_km": 6961.443450871644,
      "eccentricity": 0.00060178,
      "inclination_deg": 97.6968,
      "raan_deg": 359.9683,
      "arg_perigee_deg": 50.4056,
      "mean_anomaly_deg": 309.7695,
      "mean_motion_rev_day": 14.94699236
    },
    {
      "epoch": "2026-04-18T10:40:24.253824Z",
      "apogee_km": 587.460730411336,
      "perigee_km": 579.1272014020487,
      "latitude_deg": 1.5007049139764791e-05,
      "longitude_deg": -5.71158774685868,
      "height_km": 583.5415080568878,
      "semi_major_axis_km": 6961.430965906692,
      "eccentricity": 0.00059855,
      "inclination_deg": 97.6966,
      "raan_deg": 0.9531,
      "arg_perigee_deg": 47.9385,
      "mean_anomaly_deg": 312.2344,
      "mean_motion_rev_day": 14.94703257
    },
    {
      "epoch": "2026-04-19T13:59:11.976000Z",
      "apogee_km": 587.4168731869786,
      "perigee_km": 579.1341845601246,
      "latitude_deg": -5.116033636619275e-05,
      "longitude_deg": -55.415937563096854,
      "height_km": 583.3858637808778,
      "semi_major_axis_km": 6961.412528873551,
      "eccentricity": 0.0005949,
      "inclination_deg": 97.6965,
      "raan_deg": 2.0693,
      "arg_perigee_deg": 44.9852,
      "mean_anomaly_deg": 315.1849,
      "mean_motion_rev_day": 14.94709195
    },
    {
      "epoch": "2026-04-20T10:52:23.688480Z",
      "apogee_km": 587.3908147179636,
      "perigee_km": 579.1439174216557,
      "latitude_deg": -2.6166968911104387e-05,
      "longitude_deg": -8.719026088888015,
      "height_km": 583.2789226530991,
      "semi_major_axis_km": 6961.40436606981,
      "eccentricity": 0.00059233,
      "inclination_deg": 97.6964,
      "raan_deg": 2.9228,
      "arg_perigee_deg": 42.7433,
      "mean_anomaly_deg": 317.4247,
      "mean_motion_rev_day": 14.94711824
    },
    {
      "epoch": "2026-04-21T15:47:34.639584Z",
      "apogee_km": 587.3310084910509,
      "perigee_km": 579.1653037029491,
      "latitude_deg": -1.64848051859557e-05,
      "longitude_deg": -82.52055015385456,
      "height_km": 583.1337111005325,
      "semi_major_axis_km": 6961.385156097,
      "eccentricity": 0.0005865,
      "inclination_deg": 97.6963,
      "raan_deg": 4.1046,
      "arg_perigee_deg": 39.4023,
      "mean_anomaly_deg": 320.7623,
      "mean_motion_rev_day": 14.94718011
    },
    {
      "epoch": "2026-04-22T06:15:10.046880Z",
      "apogee_km": 587.3371836676324,
      "perigee_km": 579.1295887548822,
      "latitude_deg": -4.042961942599447e-06,
      "longitude_deg": 60.578971908586894,
      "height_km": 583.0717484327107,
      "semi_major_axis_km": 6961.370386211257,
      "eccentricity": 0.00058951,
      "inclination_deg": 97.6962,
      "raan_deg": 4.6955,
      "arg_perigee_deg": 38.7137,
      "mean_anomaly_deg": 321.4505,
      "mean_motion_rev_day": 14.94722768
    }
  ]
}